COSMOS 2251 DEB         
1 34729U 93036YX  26202.35256353  .00006968  00000+0  74095-3 0  9996
2 34729  74.0144 279.0468 0017008 343.1947 134.6943 14.89051607917356
COSMOS 2251 DEB         
1 34732U 93036ZA  26202.01072685  .00000211  00000+0  64207-4 0  9997
2 34732  74.0442  41.5004 0038733 137.3359  14.4206 14.47491853913300
COSMOS 2251 DEB         
1 34738U 93036ZG  26202.40407588  .00000481  00000+0  13896-3 0  9996
2 34738  74.0153  90.6711 0046530 184.6482 291.2745 14.46733118910493
COSMOS 2251 DEB         
1 34750U 93036ZU  26201.91778022  .00003477  00000+0  66743-3 0  9996
2 34750  74.1061 141.6334 0034858  30.4721  32.9478 14.63713156914506
COSMOS 2251 DEB         
1 34752U 93036ZW  26202.60650149  .00009269  00000+0  62596-3 0  9991
2 34752  74.0100 268.8054 0047061 337.9983  21.9185 15.05784590931685
COSMOS 2251 DEB         
1 34754U 93036ZY  26202.36393632  .00000372  00000+0  12400-3 0  9992
2 34754  74.0294 179.3877 0030730 245.0095 278.6779 14.40755642913109
COSMOS 2251 DEB         
1 34755U 93036ZZ  26202.62148329  .00000456  00000+0  44494-3 0  9994
2 34755  73.9254 294.8900 0405765 274.2257 149.4255 13.50945272855066
COSMOS 2251 DEB         
1 34756U 93036AAA 26201.96914962  .00000463  00000+0  38526-3 0  9992
2 34756  74.0040 102.0207 0340346 291.7865  64.7360 13.67785241864325
COSMOS 2251 DEB         
1 34758U 93036AAC 26202.62378331  .00000299  00000+0  26783-3 0  9991
2 34758  74.1061 303.7574 0387072  16.6032 344.7345 13.58591752859099
COSMOS 2251 DEB         
1 34760U 93036AAE 26202.46333172  .00000510  00000+0  24012-3 0  9999
2 34760  74.0629 268.2903 0097561 268.5258 116.4374 14.20035325898213
COSMOS 2251 DEB         
1 34761U 93036AAF 26202.32474454  .00000866  00000+0  28785-3 0  9999
2 34761  74.0292 315.9898 0037953 301.3122  58.4319 14.38828775908212
COSMOS 2251 DEB         
1 34784U 93036AAM 26202.53531519  .00001004  00000+0  20406-3 0  9990
2 34784  74.0048 261.3700 0050554  12.9999 347.2457 14.61726847917609
COSMOS 2251 DEB         
1 34790U 93036AAT 26202.02964141  .00000623  00000+0  26170-3 0  9992
2 34790  74.0512 206.8211 0100247 216.7911 173.8513 14.25292774897112
COSMOS 2251 DEB         
1 34792U 93036AAV 26202.18280535  .00002076  00000+0  46117-3 0  9996
2 34792  74.0169 110.6570 0012358 157.3541 353.3478 14.57642558908602
COSMOS 2251 DEB         
1 34793U 93036AAW 26202.42755721  .00000408  00000+0  13899-3 0  9996
2 34793  74.0006 202.5260 0052585 304.5316 206.2856 14.38950778905048
COSMOS 2251 DEB         
1 34796U 93036AAZ 26202.33446707  .00001013  00000+0  25472-3 0  9993
2 34796  74.0292 162.3496 0099472 211.2918 300.3212 14.49689236912231
COSMOS 2251 DEB         
1 34797U 93036ABA 26201.00080518  .00002190  00000+0  61563-3 0  9999
2 34797  73.9756  50.6455 0071626 111.7268 249.1534 14.44998532905801
COSMOS 2251 DEB         
1 34814U 93036ABD 26199.96946042  .00000729  00000+0  24722-3 0  9995
2 34814  73.8946 280.4262 0052287 121.7244  55.2029 14.37769925904681
COSMOS 2251 DEB         
1 34815U 93036ABE 26202.02482994  .00002929  00000+0  37289-3 0  9995
2 34815  74.0437 168.1751 0054916 183.4321 176.6488 14.80991579918869
COSMOS 2251 DEB         
1 34816U 93036ABF 26202.58584104  .00000500  00000+0  45180-3 0  9995
2 34816  73.8865 142.6402 0372895 167.5161   5.3578 13.58734798857824
COSMOS 2251 DEB         
1 34818U 93036ABH 26202.12579277  .00000267  00000+0  98347-4 0  9996
2 34818  74.0344 251.6145 0025946 277.6596 111.9546 14.37237192905369
COSMOS 2251 DEB         
1 34819U 93036ABJ 26202.63476778  .00004510  00000+0  81142-3 0  9994
2 34819  74.0165  76.8740 0016010 117.7827 272.0905 14.66824639914652
COSMOS 2251 DEB         
1 34823U 93036ABN 26201.00419590  .00001091  00000+0  21901-3 0  9996
2 34823  74.0392  46.8547 0152198  75.6558 286.1447 14.55822891915713
COSMOS 2251 DEB         
1 34845U 93036ABP 26202.42738708  .00000427  00000+0  12658-3 0  9993
2 34845  74.0249  96.2776 0022165 206.2646 153.7390 14.46245285906566
COSMOS 2251 DEB         
1 34846U 93036ABQ 26202.44261665  .00001398  00000+0  37944-3 0  9992
2 34846  74.0275 208.5952 0026608 229.4230 130.4614 14.48349137905981
COSMOS 2251 DEB         
1 34852U 93036ABW 26200.74417617  .00000086  00000+0  37620-4 0  9995
2 34852  74.0306 220.1392 0017817 274.5001  85.4117 14.37149551906805
COSMOS 2251 DEB         
1 34854U 93036ABY 26202.05765277  .00002142  00000+0  28908-3 0  9994
2 34854  74.0291  85.9783 0062904 141.8360 218.7296 14.78416856751360
COSMOS 2251 DEB         
1 34856U 93036ACA 26202.41526350  .00025022  00000+0  12068-2 0  9994
2 34856  74.0054 346.5860 0029294  67.6442 323.6013 15.18222011924483
COSMOS 2251 DEB         
1 34857U 93036ACB 26202.02774519  .00001995  00000+0  40587-3 0  9995
2 34857  74.0129  46.0204 0064565 115.2453  36.7241 14.60453381911150
COSMOS 2251 DEB         
1 34861U 93036ACF 26202.33286497  .00160993  00000+0  39463-2 0  9991
2 34861  73.9984 309.2763 0008698 350.0948  70.4585 15.39990781914391
COSMOS 2251 DEB         
1 34874U 93036ACM 26202.30597559  .00000934  00000+0  31682-3 0  9990
2 34874  74.0377  28.2832 0051758   2.0519 176.1566 14.37358072902120
COSMOS 2251 DEB         
1 34875U 93036ACN 26202.48080678  .00000760  00000+0  20470-3 0  9999
2 34875  74.0443 104.3826 0015581 176.3723   1.4772 14.49589045909530
COSMOS 2251 DEB         
1 34878U 93036ACR 26200.31968931  .00000283  00000+0  29536-3 0  9991
2 34878  73.9675  60.4633 0434613   2.1334 110.1088 13.44490921842106
COSMOS 2251 DEB         
1 34879U 93036ACS 26202.27381053  .00001020  00000+0  94425-3 0  9992
2 34879  73.9046 305.4441 0492454 347.1457  11.7445 13.39780459612934
COSMOS 2251 DEB         
1 34882U 93036ACV 26201.32470193  .00000245  00000+0  53072-4 0  9997
2 34882  74.0464 165.6003 0083265 237.2678 122.0443 14.61956648917331
COSMOS 2251 DEB         
1 34883U 93036ACW 26202.47378898  .00009834  00000+0  20716-2 0  9994
2 34883  74.1991   9.2058 0090003 122.4342 238.5568 14.57023245896499
COSMOS 2251 DEB         
1 34884U 93036ACX 26202.62932278  .00028324  00000+0  21194-2 0  9996
2 34884  74.0124 329.4887 0006950  25.7172 351.5749 15.02613706911109
COSMOS 2251 DEB         
1 34885U 93036ACY 26202.21742718  .00001388  00000+0  34536-3 0  9996
2 34885  74.0305 127.4396 0014664 164.8684 347.5652 14.52624370906796
COSMOS 2251 DEB         
1 34908U 93036ADD 26202.36373616  .00000758  00000+0  25620-3 0  9999
2 34908  74.0587 337.9696 0041002 302.9798  86.9447 14.38110827904506
COSMOS 2251 DEB         
1 34909U 93036ADE 26202.13463401  .00002103  00000+0  27248-3 0  9991
2 34909  74.0132   2.7422 0081617  81.4219 279.6193 14.79191506701096
COSMOS 2251 DEB         
1 34910U 93036ADF 26201.19781911  .00000312  00000+0  33606-3 0  9992
2 34910  73.8740 114.9909 0467161 196.2969 319.7698 13.37981186844598
COSMOS 2251 DEB         
1 34911U 93036ADG 26201.73938514  .00000210  00000+0  48615-4 0  9990
2 34911  74.0395 185.3419 0084966 255.8281 281.9420 14.59642668917962
COSMOS 2251 DEB         
1 34913U 93036ADJ 26199.90097874  .00000020  00000+0  16408-4 0  9996
2 34913  74.0265 242.6741 0022128 301.3654 235.9002 14.34694352683165
COSMOS 2251 DEB         
1 34918U 93036ADP 26200.84466525  .00001901  00000+0  36465-3 0  9993
2 34918  74.0679 254.4149 0025135 169.4629 313.7529 14.64265396685401
COSMOS 2251 DEB         
1 34924U 93036ADV 26202.49795334  .00002209  00000+0  44079-3 0  9998
2 34924  74.0383  27.6344 0054409  55.4642 334.6305 14.61638486909473
COSMOS 2251 DEB         
1 34944U 93036ADX 26198.26206948  .00001151  00000+0  48593-3 0  9997
2 34944  73.7468 201.2030 0219160  13.3999 347.2831 14.14709866671448
COSMOS 2251 DEB         
1 34946U 93036ADZ 26200.55484330  .00000738  00000+0  14707-3 0  9998
2 34946  74.0227 282.4470 0050919   2.8756 357.2694 14.63146395914089
COSMOS 2251 DEB         
1 34949U 93036AEC 26202.25534290  .00001688  00000+0  24349-3 0  9999
2 34949  74.0164  38.4326 0077547 127.7386 233.0849 14.75082305916126
COSMOS 2251 DEB         
1 34953U 93036AEG 26202.31266897  .00002941  00000+0  47110-3 0  9990
2 34953  74.0928 321.0972 0055263 256.2057 132.7650 14.71201743913702
COSMOS 2251 DEB         
1 34955U 93036AEJ 26196.25473315  .00003139  00000+0  21600-3 0  9998
2 34955  74.0331 168.6331 0071667 183.5470 176.5222 15.04292961932568
COSMOS 2251 DEB         
1 34962U 93036AER 26200.55398458  .00000591  00000+0  16905-3 0  9990
2 34962  74.0296 144.3679 0019049 209.4321 150.5767 14.47177056907438
COSMOS 2251 DEB         
1 34963U 93036AES 26199.78465595  .00001601  00000+0  39072-3 0  9993
2 34963  74.1708 355.2193 0041095 122.7180 237.7956 14.52942780899661
COSMOS 2251 DEB         
1 34964U 93036AET 26197.72455579  .00001572  00000+0  87059-3 0  9992
2 34964  73.9718 331.6087 0209416 143.1520 218.4219 14.01566407875033
COSMOS 2251 DEB         
1 34965U 93036AEU 26201.07289848  .00000368  00000+0  10343-3 0  9995
2 34965  74.0510  77.6797 0025304 150.3528 209.9073 14.49160708902907
COSMOS 2251 DEB         
1 34967U 93036AEW 26202.28190246  .00001040  00000+0  30217-3 0  9994
2 34967  73.9903 202.1052 0041157 296.4898  63.2040 14.45130141681428
COSMOS 2251 DEB         
1 34968U 93036AEX 26201.64786311  .00000225  00000+0  51308-4 0  9997
2 34968  74.0373 187.7475 0087809 253.3341 105.8171 14.59708276916860
COSMOS 2251 DEB         
1 34969U 93036AEY 26202.65164962  .00000413  00000+0  15672-3 0  9994
2 34969  74.0150 339.3404 0074140  58.6762 302.1619 14.32596492683000
COSMOS 2251 DEB         
1 34971U 93036AFA 26201.82628844  .00000293  00000+0  71413-4 0  9991
2 34971  73.9762 226.3492 0069063  37.9120 142.4482 14.55971287693758
COSMOS 2251 DEB         
1 34972U 93036AFB 26201.38150339  .00004395  00000+0  62439-3 0  9996
2 34972  73.9872 339.2242 0033873  78.2773 313.1881 14.76844902908890
COSMOS 2251 DEB         
1 34976U 93036AFF 26202.07423347  .00002837  00000+0  37462-3 0  9996
2 34976  74.0532 233.7502 0044797 227.9630 161.7423 14.79839150915303
